NORAD_CAT_ID,OBJECT_NAME,OBJECT_TYPE,EPOCH,MEAN_MOTION,ECCENTRICITY,INCLINATION,RA_OF_ASC_NODE,ARG_OF_PERICENTER,MEAN_ANOMALY,BSTAR,MEAN_MOTION_DOT,MEAN_MOTION_DDOT,TLE_LINE0,TLE_LINE1,TLE_LINE2,SEMIMAJOR_AXIS,PERIOD,APOGEE,PERIGEE,DECAYED
53136.0,STARLINK-4152,PAYLOAD,2024-05-03 13:25:44,15.08844481,0.0001288,53.2173,324.8962,89.1721,270.9418,-3.9494e-05,-9.16e-06,0.0,0 STARLINK-4152,1 53136U 22083E   24124.55953777 -.00000916  00000-0 -39494-4 0  9995,2 53136  53.2173 324.8962 0001288  89.1721 270.9418 15.08844481100287,6917.867,95.437,540.623,538.841,0.0
53136.0,STARLINK-4152,PAYLOAD,2024-05-03 19:47:16,15.08838712,0.0001384,53.2176,323.7064,95.2735,264.8415,8.9086e-05,1.13e-05,0.0,0 STARLINK-4152,1 53136U 22083E   24124.82449671  .00001130  00000-0  89086-4 0  9997,2 53136  53.2176 323.7064 0001384  95.2735 264.8415 15.08838712100325,6917.884,95.438,540.707,538.792,0.0
53136.0,STARLINK-4152,PAYLOAD,2024-05-04 13:16:31,15.08833623,0.0001219,53.2174,320.435,98.4459,261.6671,7.6785e-05,9.34e-06,0.0,0 STARLINK-4152,1 53136U 22083E   24125.55314246  .00000934  00000-0  76785-4 0  9990,2 53136  53.2174 320.4350 0001219  98.4459 261.6671 15.08833623100077,6917.9,95.438,540.608,538.922,0.0
53136.0,STARLINK-4152,PAYLOAD,2024-05-05 13:07:18,15.08839372,0.0001016,53.2179,315.9752,102.3824,257.7282,9.5822e-05,1.238e-05,0.0,0 STARLINK-4152,1 53136U 22083E   24126.54674064  .00001238  00000-0  95822-4 0  9998,2 53136  53.2179 315.9752 0001016 102.3824 257.7282 15.08839372100580,6917.882,95.438,540.45,539.044,0.0
53136.0,STARLINK-4152,PAYLOAD,2024-05-05 19:28:50,15.08844988,9.47e-05,53.2174,314.7876,93.4696,266.6404,0.00014364,1.999e-05,0.0,0 STARLINK-4152,1 53136U 22083E   24126.81169660  .00001999  00000-0  14364-3 0  9994,2 53136  53.2174 314.7876 0000947  93.4696 266.6404 15.08844988100267,6917.865,95.437,540.385,539.075,0.0
53136.0,STARLINK-4152,PAYLOAD,2024-05-06 05:01:09,15.08835398,9.06e-05,53.2171,313.0026,90.0663,270.0433,0.00018993,2.736e-05,0.0,0 STARLINK-4152,1 53136U 22083E   24127.20914246  .00002736  00000-0  18993-3 0  9998,2 53136  53.2171 313.0026 0000906  90.0663 270.0433 15.08835398100328,6917.894,95.438,540.386,539.133,0.0
53136.0,STARLINK-4152,PAYLOAD,2024-05-06 11:22:42,15.08839636,9.02e-05,53.2167,311.8131,74.2093,285.8999,0.00012546,1.71e-05,0.0,0 STARLINK-4152,1 53136U 22083E   24127.47410080  .00001710  00000-0  12546-3 0  9993,2 53136  53.2167 311.8131 0000902  74.2093 285.8999 15.08839636100727,6917.882,95.438,540.37,539.123,0.0
53136.0,STARLINK-4152,PAYLOAD,2024-05-06 19:19:37,15.08844957,9.54e-05,53.2179,310.3268,87.0586,273.0515,0.00013358,1.839e-05,0.0,0 STARLINK-4152,1 53136U 22083E   24127.80529663  .00001839  00000-0  13358-3 0  9992,2 53136  53.2179 310.3268 0000954  87.0586 273.0515 15.08844957100412,6917.865,95.437,540.39,539.07,0.0
53136.0,STARLINK-4152,PAYLOAD,2024-05-07 12:48:53,15.08836119,0.0001563,53.2195,307.0562,96.1702,263.9468,-1.9919e-05,-6.05e-06,0.0,0 STARLINK-4152,1 53136U 22083E   24128.53394798 -.00000605  00000-0 -19919-4 0  9994,2 53136  53.2195 307.0562 0001563  96.1702 263.9468 15.08836119100526,6917.892,95.438,540.839,538.676,0.0
53136.0,STARLINK-4152,PAYLOAD,2024-05-07 19:10:25,15.08834584,0.0001062,53.2188,305.866,85.8217,274.2897,-2.4517e-05,-6.78e-06,0.0,0 STARLINK-4152,1 53136U 22083E   24128.79890908 -.00000678  00000-0 -24517-4 0  9996,2 53136  53.2188 305.8660 0001062  85.8217 274.2897 15.08834584100922,6917.897,95.438,540.497,539.027,0.0
53136.0,STARLINK-4152,PAYLOAD,2024-05-08 04:42:44,15.08836656,0.0001085,53.2185,304.0817,79.4814,280.6301,-3.6379e-05,-8.67e-06,0.0,0 STARLINK-4152,1 53136U 22083E   24129.19635004 -.00000867  00000-0 -36379-4 0  9994,2 53136  53.2185 304.0817 0001085  79.4814 280.6301 15.08836656100980,6917.891,95.438,540.506,539.005,0.0
53136.0,STARLINK-4152,PAYLOAD,2024-05-08 19:01:12,15.08840669,9.06e-05,53.2173,301.4031,68.434,291.6749,-8.3901e-06,-4.21e-06,0.0,0 STARLINK-4152,1 53136U 22083E   24129.79250915 -.00000421  00000-0 -83901-5 0  9994,2 53136  53.2173 301.4031 0000906  68.4340 291.6749 15.08840669100717,6917.878,95.438,540.37,539.117,0.0
53136.0,STARLINK-4152,PAYLOAD,2024-05-09 10:55:04,15.08820972,9.06e-05,53.2175,298.4318,79.5832,280.5262,0.00042556,6.488e-05,0.0,0 STARLINK-4152,1 53136U 22083E   24130.45491409  .00006488  00000-0  42556-3 0  9990,2 53136  53.2175 298.4318 0000906  79.5832 280.5262 15.08820972100814,6917.939,95.439,540.43,539.177,0.0
53136.0,STARLINK-4152,PAYLOAD,2024-05-09 18:51:59,15.08850555,9.07e-05,53.2165,296.9446,64.0954,296.0131,0.00036009,5.449e-05,0.0,0 STARLINK-4152,1 53136U 22083E   24130.78610468  .00005449  00000-0  36009-3 0  9996,2 53136  53.2165 296.9446 0000907  64.0954 296.0131 15.08850555100865,6917.848,95.437,540.341,539.086,0.0
53136.0,STARLINK-4152,PAYLOAD,2024-05-10 10:45:51,15.08844744,9.15e-05,53.2163,293.9712,79.7798,280.3297,0.00021629,3.157e-05,0.0,0 STARLINK-4152,1 53136U 22083E   24131.44850816  .00003157  00000-0  21629-3 0  9999,2 53136  53.2163 293.9712 0000915  79.7798 280.3297 15.08844744100967,6917.866,95.437,540.364,539.098,0.0
53136.0,STARLINK-4152,PAYLOAD,2024-05-10 17:07:23,15.08845436,8.68e-05,53.2166,292.7811,84.7092,275.3999,0.00019996,2.897e-05,0.0,0 STARLINK-4152,1 53136U 22083E   24131.71346739  .00002897  00000-0  19996-3 0  9997,2 53136  53.2166 292.7811 0000868  84.7092 275.3999 15.08845436101364,6917.864,95.437,540.329,539.128,0.0
53136.0,STARLINK-4152,PAYLOAD,2024-05-11 10:36:35,15.08905589,7.58e-05,53.2194,289.5079,101.0664,259.0413,0.0011846,0.00018649,0.0,0 STARLINK-4152,1 53136U 22083E   24132.44207926  .00018649  00000-0  11846-2 0  9999,2 53136  53.2194 289.5079 0000758 101.0664 259.0413 15.08905589101110,6917.68,95.433,540.069,539.021,0.0
53136.0,STARLINK-4152,PAYLOAD,2024-05-11 16:58:06,15.08966161,0.000129,53.2171,288.3188,94.2246,265.8893,0.0031653,0.00050625,0.0,0 STARLINK-4152,1 53136U 22083E   24132.70702272  .00050625  00000-0  31653-2 0  9990,2 53136  53.2171 288.3188 0001290  94.2246 265.8893 15.08966161101158,6917.495,95.43,540.252,538.467,0.0
53136.0,STARLINK-4152,PAYLOAD,2024-05-12 02:30:28,15.08799505,0.00034,53.2173,286.5342,39.8957,320.2284,-0.002412,-0.00038434,0.0,0 STARLINK-4152,1 53136U 22083E   24133.10449502 -.00038434  00000-0 -24120-2 0  9996,2 53136  53.2173 286.5342 0003400  39.8957 320.2284 15.08799505101214,6918.004,95.44,542.221,537.517,0.0
53136.0,STARLINK-4152,PAYLOAD,2024-05-12 10:27:26,15.08701592,0.000111,53.2178,285.0484,61.6722,298.4382,-0.0044362,-0.00069939,0.0,0 STARLINK-4152,1 53136U 22083E   24133.43572131 -.00069939  00000-0 -44362-2 0  9991,2 53136  53.2178 285.0484 0001110  61.6722 298.4382 15.08701592101268,6918.303,95.446,540.936,539.401,0.0
53136.0,STARLINK-4152,PAYLOAD,2024-05-12 13:38:13,15.08710602,0.0003261,53.2171,284.4549,125.5693,234.5604,0.001072,0.00016755,0.0,0 STARLINK-4152,1 53136U 22083E   24133.56821237  .00016755  00000-0  10720-2 0  9996,2 53136  53.2171 284.4549 0003261 125.5693 234.5604 15.08710602101644,6918.276,95.446,542.397,537.885,0.0
53136.0,STARLINK-4152,PAYLOAD,2024-05-12 16:49:00,15.08761998,0.0001174,53.2166,283.8599,87.8424,272.2703,0.00519,0.00083108,0.0,0 STARLINK-4152,1 53136U 22083E   24133.70069737  .00083108  00000-0  51900-2 0  9992,2 53136  53.2166 283.8599 0001174  87.8424 272.2703 15.08761998101305,6918.119,95.442,540.796,539.172,0.0
53136.0,STARLINK-4152,PAYLOAD,2024-05-13 10:18:14,15.08865941,0.0001323,53.2175,280.5898,85.999,274.1154,0.0017768,0.00028123,0.0,0 STARLINK-4152,1 53136U 22083E   24134.42933750  .00028123  00000-0  17768-2 0  9997,2 53136  53.2175 280.5898 0001323  85.9990 274.1154 15.08865941101779,6917.801,95.436,540.581,538.751,0.0
53136.0,STARLINK-4152,PAYLOAD,2024-05-13 16:39:46,15.08878253,0.0001269,53.217,279.3992,85.2378,274.8759,0.0015603,0.00024657,0.0,0 STARLINK-4152,1 53136U 22083E   24134.69429135  .00024657  00000-0  15603-2 0  9997,2 53136  53.2170 279.3992 0001269  85.2378 274.8759 15.08878253101450,6917.763,95.435,540.506,538.751,0.0
53136.0,STARLINK-4152,PAYLOAD,2024-05-14 08:33:37,15.08873705,5.05e-05,53.217,276.4265,14.9551,345.1456,0.0011697,0.00018394,0.0,0 STARLINK-4152,1 53136U 22083E   24135.35668284  .00018394  00000-0  11697-2 0  9991,2 53136  53.2170 276.4265 0000505  14.9551 345.1456 15.08873705101559,6917.777,95.435,539.992,539.293,0.0
53136.0,STARLINK-4152,PAYLOAD,2024-05-14 16:30:32,15.08873025,0.0001701,53.2167,274.9364,72.8554,287.2624,0.0011654,0.00018325,0.0,0 STARLINK-4152,1 53136U 22083E   24135.68787950  .00018325  00000-0  11654-2 0  9996,2 53136  53.2167 274.9364 0001701  72.8554 287.2624 15.08873025101966,6917.779,95.435,540.821,538.468,0.0
53136.0,STARLINK-4152,PAYLOAD,2024-05-15 02:02:51,15.08871453,7.82e-05,53.2156,273.1531,49.0664,311.0395,0.00065626,0.00010181,0.0,0 STARLINK-4152,1 53136U 22083E   24136.08531261  .00010181  00000-0  65626-3 0  9994,2 53136  53.2156 273.1531 0000782  49.0664 311.0395 15.08871453101668,6917.784,95.436,540.19,539.108,0.0
53136.0,STARLINK-4152,PAYLOAD,2024-05-15 13:10:32,15.08858968,0.0001557,53.2178,271.0726,76.439,283.6776,0.0002405,3.544e-05,0.0,0 STARLINK-4152,1 53136U 22083E   24136.54899180  .00003544  00000-0  24050-3 0  9993,2 53136  53.2178 271.0726 0001557  76.4390 283.6776 15.08858968101737,6917.822,95.436,540.765,538.61,0.0
53136.0,STARLINK-4152,PAYLOAD,2024-05-15 14:45:55,15.08863319,0.0001671,53.2184,270.7745,70.5305,289.5868,0.0003636,5.507e-05,0.0,0 STARLINK-4152,1 53136U 22083E   24136.61523121  .00005507  00000-0  36360-3 0  9998,2 53136  53.2184 270.7745 0001671  70.5305 289.5868 15.08863319102104,6917.809,95.436,540.83,538.518,0.0
53136.0,STARLINK-4152,PAYLOAD,2024-05-15 17:56:41,15.08873304,0.0001148,53.2149,270.1798,84.5969,275.5154,0.00045095,6.903e-05,0.0,0 STARLINK-4152,1 53136U 22083E   24136.74770374  .00006903  00000-0  45095-3 0  9992,2 53136  53.2149 270.1798 0001148  84.5969 275.5154 15.08873304101766,6917.779,95.435,540.438,538.849,0.0
